TRANSPORTER-13 OBJECT AH
1 63241U 25052AH  26068.64880921  .00014108  00000+0  55931-3 0  9999
2 63241  97.3962 323.1443 0008070 138.7508 221.4341 15.25468797 54753
STARLINK-35887          
1 66959U 25288A   26068.26435370  .00025292  00000+0  92626-3 0  9999
2 66959  43.0020  25.7544 0000996 280.2159  79.8580 15.27551778 15229
